ORBVIEW 2 (SEASTAR)     
1 24883U 97037A   25330.67373960  .00000378  00000+0  14776-3 0  9990
2 24883  98.8452 127.3446 0002447  28.3392 331.7925 14.35398862493694
SL-16 R/B               
1 25400U 98043G   25330.87098983  .00000111  00000+0  65536-4 0  9991
2 25400  98.8100 278.6023 0009098 317.9143  42.1337 14.26019673424336
SL-16 R/B               
1 25407U 98045B   25330.51891254  .00000308  00000+0  17989-3 0  9999
2 25407  71.0126  38.5386 0007926 199.7400 160.3418 14.16171256412491
ISS (ZARYA)             
1 25544U 98067A   25330.93165932  .00010582  00000+0  19922-3 0  9992
2 25544  51.6311 220.7305 0003812 172.0243 188.0807 15.49107800540401
CZ-4B R/B               
1 25732U 99025C   25330.74454490  .00000110  00000+0  74063-4 0  9999
2 25732  98.6792  12.3805 0036030 281.2229 191.5527 14.18237722373571
OKEAN-O                 
1 25860U 99039A   25330.76783166  .00000925  00000+0  12889-3 0  9994
2 25860  97.9625  26.6062 0001019  71.1743 288.9579 14.80120270419161
SL-16 R/B               
1 25861U 99039B   25330.71075197  .00000781  00000+0  10631-3 0  9991
2 25861  98.0148  24.8594 0013810 228.0928 131.9107 14.81551575421618
DELTA 2 R/B             
1 25876U 99041E   25330.49729315  .00000990  00000+0  19920-3 0  9995
2 25876  51.7624 353.2815 0504904  43.9032 320.0888 14.11339225348459
HELIOS 1B               
1 25977U 99064A   25330.72355865  .00002676  00000+0  30397-3 0  9997
2 25977  98.1749 224.9151 0002347  63.9137 296.2319 14.87182061669954
TERRA                   
1 25994U 99068A   25330.99285973  .00000626  00000+0  13692-3 0  9993
2 25994  97.9770  23.2531 0003196 129.8267 352.1608 14.60925308380082
SL-16 R/B               
1 26070U 00006B   25330.93149138  .00000271  00000+0  16185-3 0  9995
2 26070  71.0021 313.8969 0017556 330.8628  29.1514 14.15802893334015
TITAN 4B R/B            
1 26474U 00047B   25330.89817299  .00004155  00000+0  26857-3 0  9995
2 26474  67.9903 329.3412 0040192 163.3281 196.9201 15.08609189377409
