CCSDS_OMM_VERS = 2.0
CREATION_DATE  = 
ORIGINATOR     = 

OBJECT_NAME    = ORBVIEW 2 (SEASTAR)
OBJECT_ID      = 1997-037A
CENTER_NAME    = EARTH
REF_FRAME      = TEME
TIME_SYSTEM    = UTC
MEAN_ELEMENT_THEORY = SGP/SGP4

EPOCH          = 2025-11-26T16:10:11.101440
MEAN_MOTION    = 14.35398862
ECCENTRICITY   = .00024475
INCLINATION    = 98.8452
RA_OF_ASC_NODE = 127.3446
ARG_OF_PERICENTER = 28.3392
MEAN_ANOMALY   = 331.7925

EPHEMERIS_TYPE = 0
CLASSIFICATION_TYPE = U
NORAD_CAT_ID   = 24883
ELEMENT_SET_NO = 999
REV_AT_EPOCH   = 49369
BSTAR          = .14776312E-3
MEAN_MOTION_DOT = .378E-5
MEAN_MOTION_DDOT = 0

CCSDS_OMM_VERS = 2.0
CREATION_DATE  = 
ORIGINATOR     = 

OBJECT_NAME    = SL-16 R/B
OBJECT_ID      = 1998-043G
CENTER_NAME    = EARTH
REF_FRAME      = TEME
TIME_SYSTEM    = UTC
MEAN_ELEMENT_THEORY = SGP/SGP4

EPOCH          = 2025-11-26T20:54:13.521312
MEAN_MOTION    = 14.26019673
ECCENTRICITY   = .00090982
INCLINATION    = 98.8100
RA_OF_ASC_NODE = 278.6023
ARG_OF_PERICENTER = 317.9143
MEAN_ANOMALY   = 42.1337

EPHEMERIS_TYPE = 0
CLASSIFICATION_TYPE = U
NORAD_CAT_ID   = 25400
ELEMENT_SET_NO = 999
REV_AT_EPOCH   = 42433
BSTAR          = .65535615E-4
MEAN_MOTION_DOT = .111E-5
MEAN_MOTION_DDOT = 0

CCSDS_OMM_VERS = 2.0
CREATION_DATE  = 
ORIGINATOR     = 

OBJECT_NAME    = SL-16 R/B
OBJECT_ID      = 1998-045B
CENTER_NAME    = EARTH
REF_FRAME      = TEME
TIME_SYSTEM    = UTC
MEAN_ELEMENT_THEORY = SGP/SGP4

EPOCH          = 2025-11-26T12:27:14.043456
MEAN_MOTION    = 14.16171256
ECCENTRICITY   = .0007926
INCLINATION    = 71.0126
RA_OF_ASC_NODE = 38.5386
ARG_OF_PERICENTER = 199.7400
MEAN_ANOMALY   = 160.3418

EPHEMERIS_TYPE = 0
CLASSIFICATION_TYPE = U
NORAD_CAT_ID   = 25407
ELEMENT_SET_NO = 999
REV_AT_EPOCH   = 41249
BSTAR          = .17988818E-3
MEAN_MOTION_DOT = .308E-5
MEAN_MOTION_DDOT = 0

CCSDS_OMM_VERS = 2.0
CREATION_DATE  = 
ORIGINATOR     = 

OBJECT_NAME    = ISS (ZARYA)
OBJECT_ID      = 1998-067A
CENTER_NAME    = EARTH
REF_FRAME      = TEME
TIME_SYSTEM    = UTC
MEAN_ELEMENT_THEORY = SGP/SGP4

EPOCH          = 2025-11-26T22:21:35.365248
MEAN_MOTION    = 15.49107800
ECCENTRICITY   = .00038121
INCLINATION    = 51.6311
RA_OF_ASC_NODE = 220.7305
ARG_OF_PERICENTER = 172.0243
MEAN_ANOMALY   = 188.0807

EPHEMERIS_TYPE = 0
CLASSIFICATION_TYPE = U
NORAD_CAT_ID   = 25544
ELEMENT_SET_NO = 999
REV_AT_EPOCH   = 54040
BSTAR          = .19921871E-3
MEAN_MOTION_DOT = .10582E-3
MEAN_MOTION_DDOT = 0

CCSDS_OMM_VERS = 2.0
CREATION_DATE  = 
ORIGINATOR     = 

OBJECT_NAME    = CZ-4B R/B
OBJECT_ID      = 1999-025C
CENTER_NAME    = EARTH
REF_FRAME      = TEME
TIME_SYSTEM    = UTC
MEAN_ELEMENT_THEORY = SGP/SGP4

EPOCH          = 2025-11-26T17:52:08.679360
MEAN_MOTION    = 14.18237722
ECCENTRICITY   = .00360301
INCLINATION    = 98.6792
RA_OF_ASC_NODE = 12.3805
ARG_OF_PERICENTER = 281.2229
MEAN_ANOMALY   = 191.5527

EPHEMERIS_TYPE = 0
CLASSIFICATION_TYPE = U
NORAD_CAT_ID   = 25732
ELEMENT_SET_NO = 999
REV_AT_EPOCH   = 37357
BSTAR          = .74062816E-4
MEAN_MOTION_DOT = .11E-5
MEAN_MOTION_DDOT = 0

CCSDS_OMM_VERS = 2.0
CREATION_DATE  = 
ORIGINATOR     = 

OBJECT_NAME    = OKEAN-O
OBJECT_ID      = 1999-039A
CENTER_NAME    = EARTH
REF_FRAME      = TEME
TIME_SYSTEM    = UTC
MEAN_ELEMENT_THEORY = SGP/SGP4

EPOCH          = 2025-11-26T18:25:40.655424
MEAN_MOTION    = 14.80120270
ECCENTRICITY   = .00010191
INCLINATION    = 97.9625
RA_OF_ASC_NODE = 26.6062
ARG_OF_PERICENTER = 71.1743
MEAN_ANOMALY   = 288.9579

EPHEMERIS_TYPE = 0
CLASSIFICATION_TYPE = U
NORAD_CAT_ID   = 25860
ELEMENT_SET_NO = 999
REV_AT_EPOCH   = 41916
BSTAR          = .12888603E-3
MEAN_MOTION_DOT = .925E-5
MEAN_MOTION_DDOT = 0

CCSDS_OMM_VERS = 2.0
CREATION_DATE  = 
ORIGINATOR     = 

OBJECT_NAME    = SL-16 R/B
OBJECT_ID      = 1999-039B
CENTER_NAME    = EARTH
REF_FRAME      = TEME
TIME_SYSTEM    = UTC
MEAN_ELEMENT_THEORY = SGP/SGP4

EPOCH          = 2025-11-26T17:03:28.970208
MEAN_MOTION    = 14.81551575
ECCENTRICITY   = .00138103
INCLINATION    = 98.0148
RA_OF_ASC_NODE = 24.8594
ARG_OF_PERICENTER = 228.0928
MEAN_ANOMALY   = 131.9107

EPHEMERIS_TYPE = 0
CLASSIFICATION_TYPE = U
NORAD_CAT_ID   = 25861
ELEMENT_SET_NO = 999
REV_AT_EPOCH   = 42161
BSTAR          = .1063147E-3
MEAN_MOTION_DOT = .781E-5
MEAN_MOTION_DDOT = 0

CCSDS_OMM_VERS = 2.0
CREATION_DATE  = 
ORIGINATOR     = 

OBJECT_NAME    = DELTA 2 R/B
OBJECT_ID      = 1999-041E
CENTER_NAME    = EARTH
REF_FRAME      = TEME
TIME_SYSTEM    = UTC
MEAN_ELEMENT_THEORY = SGP/SGP4

EPOCH          = 2025-11-26T11:56:06.128160
MEAN_MOTION    = 14.11339225
ECCENTRICITY   = .05049049
INCLINATION    = 51.7624
RA_OF_ASC_NODE = 353.2815
ARG_OF_PERICENTER = 43.9032
MEAN_ANOMALY   = 320.0888

EPHEMERIS_TYPE = 0
CLASSIFICATION_TYPE = U
NORAD_CAT_ID   = 25876
ELEMENT_SET_NO = 999
REV_AT_EPOCH   = 34845
BSTAR          = .19919811E-3
MEAN_MOTION_DOT = .99E-5
MEAN_MOTION_DDOT = 0

CCSDS_OMM_VERS = 2.0
CREATION_DATE  = 
ORIGINATOR     = 

OBJECT_NAME    = HELIOS 1B
OBJECT_ID      = 1999-064A
CENTER_NAME    = EARTH
REF_FRAME      = TEME
TIME_SYSTEM    = UTC
MEAN_ELEMENT_THEORY = SGP/SGP4

EPOCH          = 2025-11-26T17:21:55.467360
MEAN_MOTION    = 14.87182061
ECCENTRICITY   = .00023475
INCLINATION    = 98.1749
RA_OF_ASC_NODE = 224.9151
ARG_OF_PERICENTER = 63.9137
MEAN_ANOMALY   = 296.2319

EPHEMERIS_TYPE = 0
CLASSIFICATION_TYPE = U
NORAD_CAT_ID   = 25977
ELEMENT_SET_NO = 999
REV_AT_EPOCH   = 66995
BSTAR          = .303973E-3
MEAN_MOTION_DOT = .2676E-4
MEAN_MOTION_DDOT = 0

CCSDS_OMM_VERS = 2.0
CREATION_DATE  = 
ORIGINATOR     = 

OBJECT_NAME    = TERRA
OBJECT_ID      = 1999-068A
CENTER_NAME    = EARTH
REF_FRAME      = TEME
TIME_SYSTEM    = UTC
MEAN_ELEMENT_THEORY = SGP/SGP4

EPOCH          = 2025-11-26T23:49:43.080672
MEAN_MOTION    = 14.60925308
ECCENTRICITY   = .00031965
INCLINATION    = 97.9770
RA_OF_ASC_NODE = 23.2531
ARG_OF_PERICENTER = 129.8267
MEAN_ANOMALY   = 352.1608

EPHEMERIS_TYPE = 0
CLASSIFICATION_TYPE = U
NORAD_CAT_ID   = 25994
ELEMENT_SET_NO = 999
REV_AT_EPOCH   = 38008
BSTAR          = .13691704E-3
MEAN_MOTION_DOT = .626E-5
MEAN_MOTION_DDOT = 0

CCSDS_OMM_VERS = 2.0
CREATION_DATE  = 
ORIGINATOR     = 

OBJECT_NAME    = SL-16 R/B
OBJECT_ID      = 2000-006B
CENTER_NAME    = EARTH
REF_FRAME      = TEME
TIME_SYSTEM    = UTC
MEAN_ELEMENT_THEORY = SGP/SGP4

EPOCH          = 2025-11-26T22:21:20.855232
MEAN_MOTION    = 14.15802893
ECCENTRICITY   = .00175561
INCLINATION    = 71.0021
RA_OF_ASC_NODE = 313.8969
ARG_OF_PERICENTER = 330.8628
MEAN_ANOMALY   = 29.1514

EPHEMERIS_TYPE = 0
CLASSIFICATION_TYPE = U
NORAD_CAT_ID   = 26070
ELEMENT_SET_NO = 999
REV_AT_EPOCH   = 33401
BSTAR          = .16184884E-3
MEAN_MOTION_DOT = .271E-5
MEAN_MOTION_DDOT = 0

CCSDS_OMM_VERS = 2.0
CREATION_DATE  = 
ORIGINATOR     = 

OBJECT_NAME    = TITAN 4B R/B
OBJECT_ID      = 2000-047B
CENTER_NAME    = EARTH
REF_FRAME      = TEME
TIME_SYSTEM    = UTC
MEAN_ELEMENT_THEORY = SGP/SGP4

EPOCH          = 2025-11-26T21:33:22.146336
MEAN_MOTION    = 15.08609189
ECCENTRICITY   = .00401924
INCLINATION    = 67.9903
RA_OF_ASC_NODE = 329.3412
ARG_OF_PERICENTER = 163.3281
MEAN_ANOMALY   = 196.9201

EPHEMERIS_TYPE = 0
CLASSIFICATION_TYPE = U
NORAD_CAT_ID   = 26474
ELEMENT_SET_NO = 999
REV_AT_EPOCH   = 37740
BSTAR          = .26857062E-3
MEAN_MOTION_DOT = .4155E-4
MEAN_MOTION_DDOT = 0

